{"type":"FeatureCollection","_filter":"semua","features":[{"type":"Feature","properties":{"t":"b"},"geometry":{"type":"MultiLineString","coordinates":[[[107.74991,-6.81312],[107.74763,-6.81768],[107.74458,-6.82803],[107.74631,-6.83373],[107.74477,-6.8368],[107.74477,-6.8381],[107.7436,-6.84093],[107.74191,-6.84339],[107.74212,-6.84441],[107.74362,-6.84542],[107.74393,-6.84637],[107.74147,-6.84902],[107.74163,-6.85239],[107.74079,-6.85496],[107.7417,-6.8586],[107.74315,-6.86152],[107.74277,-6.86514],[107.74324,-6.87079],[107.74447,-6.87644],[107.74885,-6.88369],[107.75189,-6.88557],[107.754,-6.88858],[107.75855,-6.89181],[107.76037,-6.8971],[107.75883,-6.8987],[107.7593,-6.9036],[107.75862,-6.90378],[107.75886,-6.90453],[107.75815,-6.90455],[107.75772,-6.90553],[107.75807,-6.90629],[107.75904,-6.9066],[107.75784,-6.90825],[107.75881,-6.90874],[107.75759,-6.90996],[107.75846,-6.91072],[107.75812,-6.91178],[107.75893,-6.91198],[107.75874,-6.91253],[107.75943,-6.91299],[107.75842,-6.9146],[107.75934,-6.91644],[107.75977,-6.91638],[107.75924,-6.91745],[107.75982,-6.91783],[107.75919,-6.91863],[107.7598,-6.91898],[107.7596,-6.92024],[107.76009,-6.92061],[107.75907,-6.92097],[107.75863,-6.92192],[107.75835,-6.924],[107.75877,-6.92536],[107.75802,-6.92587],[107.75849,-6.92673],[107.75686,-6.92917],[107.75762,-6.92934],[107.75741,-6.9315],[107.75786,-6.93213],[107.75726,-6.93296],[107.75802,-6.93501],[107.75755,-6.93529],[107.7574,-6.93782],[107.75671,-6.93803],[107.75695,-6.93938],[107.75808,-6.93995],[107.75779,-6.94212],[107.7589,-6.9438],[107.75797,-6.94591],[107.75717,-6.94591],[107.75376,-6.95042],[107.7526,-6.95332],[107.75297,-6.9547],[107.75577,-6.95394],[107.75634,-6.95542],[107.7577,-6.9556],[107.75931,-6.95488],[107.75979,-6.95367],[107.76088,-6.95344],[107.76156,-6.95356],[107.76218,-6.95615],[107.76298,-6.95633],[107.76374,-6.95599],[107.76384,-6.95497],[107.76481,-6.95495],[107.76499,-6.95401],[107.76427,-6.9539],[107.76408,-6.95291],[107.7645,-6.95187],[107.76629,-6.95331],[107.77089,-6.95481],[107.76949,-6.95749],[107.77063,-6.9578],[107.77029,-6.95934],[107.7724,-6.96094],[107.77367,-6.95552],[107.77608,-6.95627],[107.77664,-6.95479],[107.78135,-6.95514],[107.7813,-6.95624],[107.78239,-6.95677],[107.78211,-6.95848],[107.7995,-6.96424],[107.81303,-6.96623],[107.8154,-6.96635],[107.81547,-6.96527],[107.81828,-6.96536],[107.81765,-6.96644],[107.82599,-6.96686],[107.82718,-6.96771],[107.82693,-6.97074],[107.82864,-6.97165],[107.82933,-6.97064],[107.83173,-6.96944],[107.83104,-6.96795],[107.82882,-6.96671],[107.83024,-6.96422],[107.83337,-6.96447],[107.83485,-6.96555],[107.83492,-6.96663],[107.83605,-6.96629],[107.83653,-6.96751],[107.83935,-6.96868],[107.84063,-6.96841],[107.8424,-6.96948],[107.84353,-6.9692],[107.84592,-6.97003],[107.84662,-6.96931],[107.84778,-6.96968],[107.84888,-6.96802],[107.85063,-6.96775],[107.85208,-6.9663],[107.85419,-6.96762],[107.8576,-6.967],[107.8621,-6.96777],[107.86221,-6.96618],[107.86343,-6.96513],[107.86408,-6.96509],[107.86437,-6.96572],[107.86556,-6.96527],[107.86651,-6.96581],[107.86829,-6.96457],[107.86838,-6.96279],[107.87032,-6.96317],[107.87281,-6.96258],[107.874,-6.96375],[107.8745,-6.96264],[107.87514,-6.96288],[107.87602,-6.96216],[107.87653,-6.96302],[107.87785,-6.96322],[107.87847,-6.96273],[107.87909,-6.96333],[107.87924,-6.96167],[107.88016,-6.96108],[107.88216,-6.96311],[107.88301,-6.96234],[107.88424,-6.9634],[107.88517,-6.96227],[107.88588,-6.96331],[107.88703,-6.96298],[107.88733,-6.96361],[107.88827,-6.96322],[107.88992,-6.96386],[107.89008,-6.96312],[107.89102,-6.9629],[107.89087,-6.96189],[107.89173,-6.96166],[107.89201,-6.95953],[107.89576,-6.95731],[107.89622,-6.95523],[107.89854,-6.95479],[107.89925,-6.9536],[107.90002,-6.95374],[107.90015,-6.95305],[107.90101,-6.95339],[107.90225,-6.95266],[107.90565,-6.95302],[107.90743,-6.95398],[107.90878,-6.95335],[107.91051,-6.95474],[107.91268,-6.95453],[107.9133,-6.95343],[107.91467,-6.95278],[107.91737,-6.95315],[107.91839,-6.95395],[107.91843,-6.95485],[107.91768,-6.95725],[107.91736,-6.96541],[107.91657,-6.96737],[107.91451,-6.96804],[107.90877,-6.96739],[107.90221,-6.96937],[107.89951,-6.97212],[107.90005,-6.9728],[107.89907,-6.97345],[107.89889,-6.97475],[107.89777,-6.97582],[107.89806,-6.97628],[107.89674,-6.97604],[107.89587,-6.97784],[107.89448,-6.97844],[107.89382,-6.97769],[107.89154,-6.97831],[107.88938,-6.98257],[107.89739,-6.98294],[107.89819,-6.98356],[107.89839,-6.98462],[107.90026,-6.9854],[107.90062,-6.98629],[107.90486,-6.98751],[107.90749,-6.99248],[107.90804,-6.99432],[107.90732,-6.99878],[107.90742,-6.99968],[107.9083,-7.00036],[107.90782,-7.0012],[107.90707,-7.001],[107.90709,-7.00156],[107.90807,-7.00579],[107.90702,-7.0088],[107.90475,-7.01164],[107.90583,-7.01421],[107.90706,-7.01405],[107.90705,-7.01325],[107.9084,-7.01433],[107.90648,-7.01655],[107.9078,-7.01992],[107.90688,-7.02474],[107.90897,-7.02812],[107.90933,-7.03082],[107.91051,-7.03265],[107.91029,-7.03486],[107.90979,-7.03531],[107.91022,-7.03626],[107.91167,-7.03587],[107.91228,-7.03596],[107.91237,-7.03657],[107.91341,-7.03567],[107.91476,-7.0368],[107.91559,-7.0356],[107.91672,-7.03606],[107.91748,-7.03559],[107.9192,-7.03361],[107.92287,-7.03392],[107.92386,-7.03291],[107.92548,-7.0337],[107.92759,-7.03334],[107.92896,-7.03413],[107.92935,-7.03299],[107.93057,-7.03298],[107.92988,-7.03382],[107.93074,-7.03508],[107.93438,-7.0349],[107.9356,-7.0361],[107.93323,-7.04373],[107.93197,-7.04501],[107.92852,-7.04635],[107.92656,-7.04983],[107.92574,-7.05028],[107.9262,-7.05212],[107.92448,-7.05323],[107.92004,-7.05361],[107.91522,-7.05325],[107.91262,-7.05389],[107.90852,-7.05323],[107.90149,-7.05474],[107.89907,-7.05269],[107.89715,-7.05416],[107.8952,-7.0544],[107.89286,-7.05357],[107.89204,-7.04953],[107.89147,-7.04916],[107.88647,-7.0494],[107.87911,-7.05094],[107.87656,-7.05028],[107.87551,-7.05405],[107.87341,-7.05532],[107.86886,-7.05657],[107.86568,-7.05673],[107.86152,-7.05972],[107.84986,-7.05882],[107.84982,-7.06057],[107.84832,-7.06144],[107.84686,-7.06408],[107.84548,-7.06377],[107.84301,-7.06515],[107.84213,-7.06639],[107.84023,-7.06709],[107.83804,-7.06659],[107.8347,-7.06925],[107.83247,-7.06932],[107.83081,-7.07359],[107.83101,-7.07404],[107.83304,-7.07401],[107.83215,-7.07628],[107.82976,-7.07657],[107.82889,-7.08034],[107.83001,-7.08177],[107.82949,-7.08491],[107.83135,-7.0886],[107.83073,-7.09078],[107.82574,-7.09259],[107.82012,-7.09607],[107.8115,-7.0992],[107.80993,-7.10181],[107.81088,-7.10987],[107.81059,-7.11095],[107.80906,-7.11238],[107.80911,-7.11335],[107.80824,-7.11388],[107.80777,-7.11574],[107.80794,-7.1172],[107.81042,-7.12067],[107.81026,-7.12362],[107.81099,-7.12441],[107.81091,-7.12614],[107.81172,-7.12673],[107.81189,-7.12925],[107.81082,-7.13282],[107.81128,-7.13653],[107.80954,-7.13913],[107.80772,-7.14448],[107.79899,-7.15641],[107.79595,-7.15898],[107.79329,-7.16005],[107.78854,-7.16151],[107.78556,-7.16158],[107.78197,-7.15869],[107.77989,-7.15853],[107.77915,-7.157],[107.77947,-7.15648],[107.77829,-7.15573],[107.77349,-7.15561],[107.77079,-7.15678],[107.76978,-7.15834],[107.76954,-7.1626],[107.77122,-7.16565],[107.77099,-7.16734],[107.77027,-7.16863],[107.76601,-7.17168],[107.75407,-7.17261],[107.75014,-7.17154],[107.74177,-7.16722],[107.7398,-7.16726],[107.7392,-7.1712],[107.73609,-7.17394],[107.73525,-7.17751],[107.73308,-7.18259],[107.72828,-7.1887],[107.72498,-7.19154],[107.72157,-7.19798],[107.72225,-7.20004],[107.72415,-7.20279],[107.7252,-7.20633],[107.7279,-7.20849],[107.731,-7.21219],[107.73112,-7.21317],[107.72901,-7.2153],[107.72719,-7.21589],[107.72446,-7.21884],[107.72199,-7.21849],[107.71907,-7.22036],[107.71862,-7.22227],[107.71555,-7.22215],[107.71543,-7.2232],[107.71414,-7.22428],[107.70747,-7.22754],[107.70708,-7.22848],[107.70869,-7.2313],[107.70619,-7.23791],[107.70874,-7.24592],[107.7098,-7.24762],[107.7123,-7.2494],[107.71868,-7.25236],[107.72614,-7.25742],[107.73341,-7.26061],[107.73809,-7.26472],[107.73904,-7.26665],[107.73914,-7.27236],[107.73827,-7.27379],[107.73245,-7.27916],[107.72961,-7.28255],[107.72303,-7.2882],[107.72243,-7.28973],[107.72246,-7.29261],[107.72326,-7.29327],[107.73022,-7.29281],[107.73127,-7.29402],[107.73102,-7.29536],[107.73013,-7.29632],[107.72643,-7.29792],[107.72471,-7.2993],[107.72363,-7.30409],[107.72355,-7.31321],[107.72286,-7.31422],[107.72116,-7.31493],[107.71937,-7.31483],[107.7173,-7.31369],[107.71405,-7.31044],[107.70943,-7.3087],[107.70243,-7.30933],[107.69835,-7.30907],[107.69458,-7.31028],[107.69157,-7.309],[107.68894,-7.30935],[107.68699,-7.30791],[107.68391,-7.30848],[107.68339,-7.30758],[107.68136,-7.30662],[107.6805,-7.30688],[107.68008,-7.30807],[107.68045,-7.3094],[107.67813,-7.31068],[107.67744,-7.31264],[107.67786,-7.3148],[107.67616,-7.31607],[107.67491,-7.31391],[107.67398,-7.31335],[107.67023,-7.31277],[107.67131,-7.31041],[107.67142,-7.30869],[107.67056,-7.30433],[107.66882,-7.30048],[107.66663,-7.30103],[107.66427,-7.29873],[107.66402,-7.2978],[107.66541,-7.29651],[107.66549,-7.29454],[107.66415,-7.29365],[107.66199,-7.29348],[107.6601,-7.29043],[107.65767,-7.28977],[107.65704,-7.29079],[107.65539,-7.29077],[107.65389,-7.29269],[107.65225,-7.29361],[107.65245,-7.29476],[107.64822,-7.29482],[107.64801,-7.29629],[107.64716,-7.29647],[107.64679,-7.29759],[107.6476,-7.29864],[107.64542,-7.29985],[107.64487,-7.30118],[107.64259,-7.30335],[107.64095,-7.30398],[107.63736,-7.3031],[107.63537,-7.30154],[107.63015,-7.3014],[107.62752,-7.29863],[107.625,-7.30047],[107.62202,-7.30521],[107.62003,-7.30695],[107.61245,-7.30927],[107.61021,-7.3093],[107.60519,-7.30785],[107.6037,-7.3028],[107.60147,-7.29941],[107.60337,-7.2967],[107.60378,-7.29353],[107.60246,-7.29035],[107.60167,-7.28638],[107.59923,-7.28295],[107.5966,-7.28328],[107.59259,-7.28058],[107.59074,-7.28166],[107.58815,-7.28055],[107.58721,-7.2791],[107.58534,-7.27891],[107.58379,-7.27716],[107.58215,-7.2767],[107.58046,-7.27418],[107.57896,-7.27325],[107.57798,-7.27132],[107.57825,-7.26891],[107.57373,-7.26286],[107.56939,-7.26018],[107.56709,-7.25951],[107.56198,-7.25446],[107.5573,-7.25143],[107.554,-7.25181],[107.54845,-7.25492],[107.54602,-7.25778],[107.54494,-7.25756],[107.53523,-7.25138],[107.53345,-7.25147],[107.53184,-7.25425],[107.53079,-7.25472],[107.52415,-7.25603],[107.52065,-7.25633],[107.51154,-7.2557],[107.50074,-7.25724],[107.49865,-7.2563],[107.48797,-7.25398],[107.48064,-7.25141],[107.47831,-7.25241],[107.47676,-7.25394],[107.47772,-7.25535],[107.47665,-7.25653],[107.47421,-7.25457],[107.47265,-7.25568],[107.47179,-7.25734],[107.47046,-7.25804],[107.46949,-7.25586],[107.46853,-7.25506],[107.46848,-7.25398],[107.46406,-7.25242],[107.46081,-7.25357],[107.45621,-7.25986],[107.45512,-7.26034],[107.44801,-7.26078],[107.44123,-7.25993],[107.43265,-7.25697],[107.42712,-7.26009],[107.42435,-7.26024],[107.41714,-7.25857],[107.4113,-7.2556],[107.40661,-7.25516],[107.40211,-7.25007],[107.39877,-7.24805],[107.37979,-7.24167],[107.375,-7.24036],[107.36905,-7.2401],[107.36468,-7.23818],[107.36182,-7.23792],[107.35676,-7.23562],[107.35235,-7.23811],[107.34612,-7.23852],[107.34448,-7.23422],[107.33902,-7.22721],[107.33749,-7.21597],[107.33046,-7.21302],[107.32839,-7.20789],[107.32545,-7.20387],[107.31976,-7.20406],[107.31294,-7.20523],[107.3039,-7.20851],[107.30165,-7.20786],[107.29986,-7.2058],[107.29793,-7.2064],[107.29677,-7.20778],[107.29518,-7.20786],[107.295,-7.20847],[107.29291,-7.20809],[107.29184,-7.20692],[107.29032,-7.20734],[107.28992,-7.2084],[107.288,-7.20834],[107.2844,-7.20773],[107.2822,-7.2064],[107.28058,-7.20713],[107.27884,-7.20687],[107.2783,-7.20742],[107.27683,-7.20663],[107.27661,-7.20565],[107.27533,-7.20472],[107.27231,-7.20509],[107.27035,-7.20436],[107.26996,-7.20499],[107.26829,-7.20429],[107.26789,-7.20354],[107.26679,-7.20425],[107.2655,-7.20327],[107.26525,-7.2022],[107.26206,-7.20163],[107.26093,-7.20077],[107.2581,-7.20077],[107.257,-7.20152],[107.2547,-7.20023],[107.25144,-7.20129],[107.25104,-7.19977],[107.25276,-7.19781],[107.2534,-7.1955],[107.25618,-7.19476],[107.25993,-7.19186],[107.27626,-7.18402],[107.27636,-7.17986],[107.27708,-7.17898],[107.28314,-7.17432],[107.28818,-7.17295],[107.2924,-7.17097],[107.297,-7.16394],[107.30552,-7.16352],[107.31218,-7.15766],[107.31302,-7.15555],[107.31524,-7.15315],[107.316,-7.15048],[107.31604,-7.14732],[107.31696,-7.14541],[107.31559,-7.13471],[107.31312,-7.13152],[107.31535,-7.12884],[107.30916,-7.12412],[107.3084,-7.11812],[107.30879,-7.11646],[107.30845,-7.11472],[107.30931,-7.11265],[107.3091,-7.11045],[107.31182,-7.10857],[107.31203,-7.10736],[107.31475,-7.10697],[107.3162,-7.10786],[107.31909,-7.10721],[107.32026,-7.10798],[107.3221,-7.10792],[107.32595,-7.10985],[107.32889,-7.10832],[107.33411,-7.1084],[107.34067,-7.11067],[107.34267,-7.10892],[107.34348,-7.10906],[107.34353,-7.1085],[107.34468,-7.10924],[107.34626,-7.10818],[107.34799,-7.10979],[107.34971,-7.10939],[107.35407,-7.11106],[107.35777,-7.11332],[107.35809,-7.11426],[107.35964,-7.11401],[107.36002,-7.11538],[107.36063,-7.11548],[107.36116,-7.11715],[107.36235,-7.11849],[107.36448,-7.11798],[107.36572,-7.11575],[107.36776,-7.11467],[107.37033,-7.11548],[107.37143,-7.11508],[107.37214,-7.11651],[107.37555,-7.11697],[107.38218,-7.11934],[107.38446,-7.12189],[107.38679,-7.12201],[107.38915,-7.12109],[107.392,-7.1209],[107.39497,-7.1193],[107.40237,-7.11131],[107.40731,-7.10915],[107.409,-7.09666],[107.4071,-7.09133],[107.40838,-7.08916],[107.4095,-7.08913],[107.41022,-7.08819],[107.41034,-7.08591],[107.41155,-7.08432],[107.41503,-7.08309],[107.41685,-7.08061],[107.41839,-7.07987],[107.41921,-7.07658],[107.42214,-7.07516],[107.42136,-7.07291],[107.42175,-7.07091],[107.41992,-7.06751],[107.42072,-7.06534],[107.42049,-7.06362],[107.41943,-7.0623],[107.42377,-7.05962],[107.42551,-7.057],[107.42716,-7.05744],[107.42808,-7.0552],[107.43372,-7.05454],[107.43987,-7.0521],[107.44239,-7.04999],[107.44796,-7.04844],[107.45381,-7.05163],[107.46007,-7.05232],[107.46053,-7.05162],[107.46519,-7.05261],[107.46621,-7.05235],[107.4697,-7.05419],[107.47349,-7.05428],[107.47585,-7.05698],[107.47713,-7.0574],[107.47758,-7.05518],[107.47681,-7.05449],[107.4771,-7.05226],[107.47549,-7.05118],[107.47599,-7.04513],[107.47535,-7.04385],[107.47532,-7.04042],[107.47738,-7.03901],[107.47887,-7.03568],[107.48024,-7.03514],[107.48001,-7.03266],[107.48055,-7.02959],[107.48081,-7.02933],[107.48139,-7.03107],[107.48246,-7.02713],[107.48131,-7.02663],[107.48134,-7.02712],[107.48111,-7.02834],[107.48159,-7.02337],[107.47767,-7.01997],[107.47524,-7.01888],[107.47495,-7.01596],[107.47386,-7.01392],[107.47226,-7.01286],[107.47279,-7.00822],[107.47175,-7.00191],[107.47187,-7.00032],[107.47271,-7.00021],[107.47254,-6.99905],[107.47332,-6.9987],[107.47329,-6.99818],[107.47196,-6.99752],[107.47278,-6.99613],[107.47283,-6.99424],[107.47754,-6.99456],[107.48086,-6.99565],[107.48403,-6.9976],[107.48582,-7.00021],[107.48648,-6.99997],[107.4877,-6.99435],[107.48631,-6.99102],[107.48595,-6.98528],[107.48743,-6.98067],[107.49439,-6.97919],[107.49834,-6.97744],[107.49893,-6.97768],[107.49968,-6.97954],[107.5021,-6.9805],[107.50332,-6.98291],[107.5049,-6.98179],[107.50414,-6.97932],[107.50479,-6.97908],[107.50586,-6.97969],[107.50676,-6.97866],[107.50676,-6.97737],[107.50829,-6.97668],[107.50889,-6.97119],[107.51096,-6.96749],[107.51299,-6.96614],[107.51292,-6.96494],[107.51441,-6.96372],[107.51517,-6.96439],[107.51648,-6.96341],[107.5186,-6.95683],[107.52064,-6.95444],[107.52199,-6.95449],[107.52413,-6.95192],[107.524,-6.94991],[107.52581,-6.9448],[107.53134,-6.94171],[107.53209,-6.94053],[107.53148,-6.93935],[107.52934,-6.938],[107.52263,-6.93553],[107.52314,-6.93205],[107.52274,-6.92836],[107.52481,-6.92485],[107.5235,-6.92336],[107.52441,-6.92137],[107.52427,-6.92029],[107.52618,-6.92088],[107.52668,-6.92055],[107.52663,-6.91941],[107.52844,-6.91884],[107.52974,-6.91724],[107.53639,-6.91894],[107.53597,-6.91771],[107.53698,-6.91739],[107.54377,-6.91902],[107.54525,-6.92649],[107.54729,-6.92671],[107.5459,-6.92808],[107.54652,-6.92921],[107.56101,-6.94923],[107.56556,-6.95279],[107.58163,-6.96139],[107.58459,-6.96233],[107.5894,-6.96272],[107.61679,-6.96092],[107.62655,-6.96421],[107.63872,-6.96585],[107.6424,-6.96582],[107.64943,-6.96467],[107.66579,-6.96759],[107.67095,-6.96755],[107.69433,-6.96973],[107.69939,-6.9692],[107.70336,-6.96805],[107.71598,-6.96169],[107.71585,-6.96044],[107.71648,-6.95922],[107.71584,-6.95862],[107.71561,-6.9562],[107.71488,-6.95581],[107.71363,-6.95614],[107.71256,-6.95391],[107.71336,-6.94932],[107.71305,-6.94758],[107.71435,-6.94605],[107.71589,-6.94577],[107.71709,-6.94204],[107.71642,-6.94139],[107.71779,-6.93915],[107.72091,-6.93738],[107.72137,-6.93472],[107.72276,-6.93323],[107.72441,-6.92902],[107.72489,-6.92599],[107.726,-6.92416],[107.7269,-6.91966],[107.72577,-6.91919],[107.7262,-6.91764],[107.72726,-6.91658],[107.72854,-6.91702],[107.72972,-6.91321],[107.73055,-6.91344],[107.7319,-6.9109],[107.73431,-6.90854],[107.73501,-6.90886],[107.73636,-6.90701],[107.73708,-6.90717],[107.73955,-6.9021],[107.73812,-6.90113],[107.73817,-6.89964],[107.7372,-6.89995],[107.73603,-6.89913],[107.73463,-6.8995],[107.73411,-6.89908],[107.73435,-6.89815],[107.73362,-6.89773],[107.73208,-6.89781],[107.73024,-6.89709],[107.72991,-6.89589],[107.72756,-6.89595],[107.72708,-6.89644],[107.72612,-6.89504],[107.72428,-6.89698],[107.7241,-6.89799],[107.72255,-6.89909],[107.7197,-6.8989],[107.71846,-6.89962],[107.71744,-6.89918],[107.71492,-6.90398],[107.71393,-6.90229],[107.71466,-6.89573],[107.71455,-6.89021],[107.71344,-6.88943],[107.71258,-6.8894],[107.71217,-6.8905],[107.71088,-6.88991],[107.71023,-6.89049],[107.70762,-6.88973],[107.70755,-6.89071],[107.7066,-6.89168],[107.70463,-6.89153],[107.70411,-6.89338],[107.70493,-6.89576],[107.70442,-6.89838],[107.7036,-6.89872],[107.70191,-6.89796],[107.70086,-6.90073],[107.70494,-6.9022],[107.70427,-6.90386],[107.70399,-6.90761],[107.7026,-6.90721],[107.70212,-6.90815],[107.70059,-6.90756],[107.7,-6.90821],[107.69283,-6.9054],[107.69488,-6.90268],[107.69381,-6.90148],[107.69235,-6.90141],[107.69045,-6.90004],[107.68953,-6.89827],[107.68873,-6.89801],[107.68884,-6.89698],[107.68461,-6.89559],[107.68457,-6.89438],[107.68386,-6.89353],[107.68415,-6.89289],[107.68271,-6.89253],[107.68339,-6.89143],[107.68136,-6.89042],[107.68077,-6.88942],[107.67968,-6.88968],[107.67956,-6.89078],[107.67852,-6.89134],[107.67808,-6.89254],[107.67477,-6.8919],[107.67298,-6.89218],[107.67061,-6.8912],[107.66808,-6.89102],[107.6707,-6.88439],[107.67019,-6.88399],[107.66913,-6.88461],[107.66533,-6.8901],[107.66446,-6.88967],[107.66567,-6.88531],[107.66521,-6.88447],[107.66356,-6.88361],[107.6565,-6.89428],[107.65561,-6.89411],[107.65437,-6.89478],[107.64927,-6.89332],[107.64898,-6.89196],[107.64567,-6.89115],[107.64711,-6.88982],[107.64652,-6.88945],[107.64647,-6.8885],[107.64587,-6.8885],[107.64406,-6.89304],[107.64232,-6.89382],[107.64187,-6.89333],[107.64212,-6.89261],[107.6397,-6.89071],[107.63745,-6.88654],[107.63623,-6.88631],[107.63541,-6.8884],[107.63393,-6.88816],[107.63383,-6.88905],[107.63365,-6.88954],[107.63357,-6.8897],[107.63241,-6.88937],[107.63324,-6.88542],[107.63392,-6.88464],[107.63292,-6.88314],[107.63061,-6.88258],[107.62948,-6.88053],[107.6302,-6.87677],[107.62965,-6.87495],[107.63064,-6.87235],[107.63003,-6.87136],[107.62731,-6.87121],[107.62726,-6.86827],[107.62668,-6.86813],[107.62653,-6.86694],[107.62537,-6.86649],[107.62448,-6.8672],[107.62375,-6.86649],[107.62623,-6.86369],[107.62414,-6.86201],[107.62544,-6.86052],[107.62522,-6.85835],[107.62735,-6.85802],[107.62858,-6.85569],[107.63134,-6.85616],[107.63261,-6.8553],[107.63403,-6.85548],[107.63504,-6.85468],[107.63709,-6.85502],[107.637,-6.85281],[107.6381,-6.85216],[107.63931,-6.8529],[107.63974,-6.85149],[107.64056,-6.85158],[107.64164,-6.8505],[107.64263,-6.8504],[107.64395,-6.84643],[107.64631,-6.84516],[107.6471,-6.84399],[107.64842,-6.84386],[107.64972,-6.84255],[107.65191,-6.84202],[107.65455,-6.83849],[107.65471,-6.83703],[107.65999,-6.83423],[107.66079,-6.83309],[107.66066,-6.83214],[107.66513,-6.83129],[107.66642,-6.83212],[107.66873,-6.83133],[107.66993,-6.83222],[107.67234,-6.83242],[107.674,-6.83122],[107.67536,-6.83149],[107.67628,-6.83046],[107.67729,-6.83168],[107.67811,-6.83052],[107.6792,-6.83173],[107.68073,-6.83095],[107.68232,-6.83136],[107.68283,-6.83011],[107.68517,-6.83018],[107.68774,-6.83103],[107.68853,-6.83016],[107.68947,-6.83044],[107.68954,-6.82925],[107.69036,-6.82912],[107.69124,-6.83],[107.69243,-6.82909],[107.694,-6.82989],[107.69485,-6.83623],[107.70017,-6.8371],[107.7034,-6.84026],[107.70725,-6.83807],[107.71291,-6.83334],[107.71375,-6.83361],[107.71418,-6.83313],[107.71518,-6.83411],[107.71667,-6.83405],[107.71758,-6.83471],[107.7184,-6.83414],[107.71906,-6.83038],[107.72108,-6.83006],[107.7215,-6.82886],[107.72041,-6.82597],[107.71908,-6.82537],[107.71888,-6.82467],[107.72175,-6.82037],[107.72301,-6.82013],[107.72464,-6.81846],[107.72655,-6.81067],[107.73138,-6.81178],[107.7338,-6.81386],[107.73858,-6.81232],[107.74117,-6.81357],[107.7472,-6.81354],[107.74998,-6.81268],[107.74991,-6.81312]],[[107.48103,-7.02888],[107.48104,-7.02875],[107.48097,-7.02902],[107.48103,-7.02888]],[[107.48105,-7.02865],[107.48109,-7.02845],[107.48105,-7.02866],[107.48105,-7.02865]]]}},{"type":"Feature","properties":{"t":"b"},"geometry":{"type":"MultiLineString","coordinates":[[[107.72655,-6.81067],[107.72464,-6.81846],[107.72301,-6.82013],[107.72175,-6.82037],[107.71888,-6.82467],[107.71908,-6.82537],[107.72041,-6.82597],[107.7215,-6.82886],[107.72108,-6.83006],[107.71906,-6.83038],[107.71883,-6.83341],[107.71766,-6.83467],[107.71667,-6.83405],[107.71582,-6.8344],[107.71418,-6.83313],[107.71375,-6.83361],[107.71291,-6.83334],[107.70725,-6.83807],[107.7034,-6.84026],[107.70017,-6.8371],[107.69485,-6.83623],[107.694,-6.82989],[107.69243,-6.82909],[107.69124,-6.83],[107.69036,-6.82912],[107.68954,-6.82925],[107.68947,-6.83044],[107.68853,-6.83016],[107.68774,-6.83103],[107.68517,-6.83018],[107.68283,-6.83011],[107.68232,-6.83136],[107.68073,-6.83095],[107.6792,-6.83173],[107.67811,-6.83052],[107.67729,-6.83168],[107.67628,-6.83046],[107.67536,-6.83149],[107.674,-6.83122],[107.67234,-6.83242],[107.66993,-6.83222],[107.66873,-6.83133],[107.66642,-6.83212],[107.66513,-6.83129],[107.6608,-6.83209],[107.65999,-6.83423],[107.65471,-6.83703],[107.65455,-6.83849],[107.65191,-6.84202],[107.64972,-6.84255],[107.64842,-6.84386],[107.6471,-6.84399],[107.64631,-6.84516],[107.64395,-6.84643],[107.64263,-6.8504],[107.64164,-6.8505],[107.64056,-6.85158],[107.63974,-6.85149],[107.63931,-6.8529],[107.6381,-6.85216],[107.637,-6.85281],[107.63709,-6.85502],[107.63504,-6.85468],[107.63403,-6.85548],[107.63261,-6.8553],[107.63134,-6.85616],[107.62858,-6.85569],[107.62735,-6.85802],[107.62522,-6.85835],[107.62523,-6.86102],[107.62291,-6.86299],[107.62243,-6.86251],[107.622,-6.85788],[107.62235,-6.85572],[107.62119,-6.85561],[107.61682,-6.84917],[107.61588,-6.84954],[107.61602,-6.8472],[107.61453,-6.84925],[107.61339,-6.84922],[107.61102,-6.85087],[107.60845,-6.85597],[107.60785,-6.85595],[107.60624,-6.85841],[107.60546,-6.85843],[107.60453,-6.85937],[107.60432,-6.85847],[107.60324,-6.85825],[107.60372,-6.85645],[107.60036,-6.85632],[107.60157,-6.85528],[107.6014,-6.8544],[107.60222,-6.85364],[107.60189,-6.852],[107.60282,-6.85201],[107.60235,-6.85153],[107.60251,-6.84874],[107.60324,-6.84811],[107.60321,-6.84589],[107.60276,-6.84554],[107.60381,-6.84197],[107.6,-6.84261],[107.59973,-6.8421],[107.59638,-6.84179],[107.59646,-6.84],[107.59687,-6.83902],[107.59822,-6.8382],[107.59857,-6.83608],[107.59752,-6.83706],[107.59753,-6.83861],[107.59669,-6.83878],[107.59406,-6.84208],[107.59464,-6.84317],[107.59322,-6.84484],[107.59314,-6.84617],[107.59212,-6.84793],[107.5896,-6.84961],[107.59039,-6.85305],[107.58875,-6.85367],[107.58881,-6.85485],[107.58965,-6.85543],[107.58916,-6.85723],[107.58641,-6.85967],[107.58389,-6.85975],[107.58147,-6.86151],[107.57927,-6.86414],[107.57671,-6.86557],[107.57688,-6.86726],[107.57567,-6.86763],[107.57677,-6.86858],[107.57568,-6.86962],[107.57591,-6.87072],[107.57491,-6.87143],[107.57512,-6.87344],[107.57372,-6.87559],[107.57401,-6.87711],[107.57297,-6.87744],[107.57147,-6.88211],[107.57054,-6.88277],[107.56971,-6.88163],[107.57015,-6.88039],[107.56883,-6.87874],[107.56931,-6.87799],[107.56873,-6.87795],[107.56891,-6.87724],[107.56555,-6.87589],[107.56446,-6.87616],[107.56481,-6.87499],[107.56255,-6.87314],[107.56163,-6.87146],[107.56329,-6.86805],[107.56518,-6.86651],[107.5648,-6.86647],[107.5655,-6.86531],[107.56495,-6.86495],[107.56413,-6.8661],[107.56247,-6.86472],[107.56358,-6.86299],[107.56181,-6.86191],[107.56229,-6.86036],[107.56329,-6.85946],[107.56354,-6.85608],[107.56256,-6.85577],[107.56267,-6.8549],[107.56137,-6.85528],[107.55933,-6.85448],[107.55843,-6.85619],[107.55603,-6.85479],[107.5553,-6.854],[107.55567,-6.85328],[107.55506,-6.85303],[107.55497,-6.85102],[107.55366,-6.84969],[107.5509,-6.84845],[107.55194,-6.84538],[107.55302,-6.84483],[107.55457,-6.84276],[107.55551,-6.84035],[107.54934,-6.83854],[107.54954,-6.83556],[107.55207,-6.82917],[107.54695,-6.82802],[107.54652,-6.83043],[107.54471,-6.83243],[107.5428,-6.83393],[107.5396,-6.83379],[107.53904,-6.83448],[107.53853,-6.83814],[107.53736,-6.84033],[107.53728,-6.84328],[107.53517,-6.84616],[107.53533,-6.84758],[107.53638,-6.84792],[107.53746,-6.84926],[107.53688,-6.84936],[107.53546,-6.85198],[107.53593,-6.85315],[107.53535,-6.85435],[107.53757,-6.85571],[107.53686,-6.85763],[107.53645,-6.85753],[107.53655,-6.85841],[107.53421,-6.85994],[107.53357,-6.86213],[107.53236,-6.86228],[107.52988,-6.86414],[107.5283,-6.86431],[107.52745,-6.86542],[107.52386,-6.86472],[107.52278,-6.86545],[107.5238,-6.86524],[107.52436,-6.86571],[107.52489,-6.86749],[107.52677,-6.86765],[107.52595,-6.86959],[107.52365,-6.87024],[107.52293,-6.87326],[107.52211,-6.87287],[107.52115,-6.87477],[107.52026,-6.87426],[107.51875,-6.875],[107.51933,-6.87527],[107.5201,-6.87773],[107.51973,-6.88065],[107.51678,-6.88158],[107.51624,-6.88325],[107.51535,-6.8833],[107.5131,-6.88712],[107.51246,-6.88887],[107.51451,-6.88956],[107.51452,-6.89053],[107.51328,-6.89132],[107.51087,-6.89561],[107.51021,-6.89832],[107.5109,-6.90118],[107.5123,-6.90271],[107.51421,-6.90327],[107.51287,-6.90497],[107.51588,-6.90482],[107.51805,-6.90837],[107.51983,-6.90922],[107.52095,-6.9106],[107.51834,-6.9147],[107.51876,-6.91549],[107.5205,-6.91594],[107.51882,-6.91672],[107.519,-6.9189],[107.52209,-6.91753],[107.52415,-6.91859],[107.52495,-6.91994],[107.52505,-6.92075],[107.52427,-6.92029],[107.52441,-6.92137],[107.52349,-6.92322],[107.52481,-6.92485],[107.52274,-6.92836],[107.52314,-6.93205],[107.52263,-6.93553],[107.52934,-6.938],[107.53148,-6.93935],[107.53209,-6.94053],[107.53134,-6.94171],[107.52581,-6.9448],[107.524,-6.94991],[107.52413,-6.95192],[107.52199,-6.95449],[107.52064,-6.95444],[107.5186,-6.95683],[107.51648,-6.96341],[107.51517,-6.96439],[107.51441,-6.96372],[107.51292,-6.96494],[107.51299,-6.96614],[107.51096,-6.96749],[107.50889,-6.97119],[107.50829,-6.97668],[107.50676,-6.97737],[107.50676,-6.97866],[107.50586,-6.97969],[107.50479,-6.97908],[107.50414,-6.97932],[107.5049,-6.98179],[107.50332,-6.98291],[107.5021,-6.9805],[107.49968,-6.97954],[107.49893,-6.97768],[107.49834,-6.97744],[107.49439,-6.97919],[107.48743,-6.98067],[107.48595,-6.98528],[107.48631,-6.99102],[107.4877,-6.99435],[107.48648,-6.99997],[107.48582,-7.00021],[107.48403,-6.9976],[107.48086,-6.99565],[107.47754,-6.99456],[107.47283,-6.99424],[107.47278,-6.99613],[107.47196,-6.99752],[107.47329,-6.99818],[107.47332,-6.9987],[107.47254,-6.99905],[107.47271,-7.00021],[107.47187,-7.00032],[107.47175,-7.00191],[107.47279,-7.00822],[107.47226,-7.01286],[107.47386,-7.01392],[107.47495,-7.01596],[107.47524,-7.01888],[107.47767,-7.01997],[107.48159,-7.02337],[107.48111,-7.02834],[107.48131,-7.02663],[107.48246,-7.02713],[107.48139,-7.03107],[107.48081,-7.02933],[107.48055,-7.02959],[107.48001,-7.03266],[107.48024,-7.03514],[107.47887,-7.03568],[107.47738,-7.03901],[107.47532,-7.04042],[107.47535,-7.04385],[107.47599,-7.04513],[107.47549,-7.05118],[107.4771,-7.05226],[107.47681,-7.05449],[107.47758,-7.05518],[107.47713,-7.0574],[107.47585,-7.05698],[107.47349,-7.05428],[107.4697,-7.05419],[107.46621,-7.05235],[107.46519,-7.05261],[107.46053,-7.05162],[107.46007,-7.05232],[107.45381,-7.05163],[107.44796,-7.04844],[107.44239,-7.04999],[107.43987,-7.0521],[107.43372,-7.05454],[107.42808,-7.0552],[107.42716,-7.05744],[107.42551,-7.057],[107.42377,-7.05962],[107.41943,-7.0623],[107.42049,-7.06362],[107.42072,-7.06534],[107.41992,-7.06751],[107.42175,-7.07091],[107.42136,-7.07291],[107.42214,-7.07516],[107.41921,-7.07658],[107.41839,-7.07987],[107.41685,-7.08061],[107.41503,-7.08309],[107.41155,-7.08432],[107.41034,-7.08591],[107.41022,-7.08819],[107.4095,-7.08913],[107.40838,-7.08916],[107.4071,-7.09133],[107.409,-7.09666],[107.40731,-7.10915],[107.40237,-7.11131],[107.39497,-7.1193],[107.39243,-7.12076],[107.38915,-7.12109],[107.38679,-7.12201],[107.38446,-7.12189],[107.38218,-7.11934],[107.37555,-7.11697],[107.37214,-7.11651],[107.37143,-7.11508],[107.37033,-7.11548],[107.36776,-7.11467],[107.36572,-7.11575],[107.36448,-7.11798],[107.36235,-7.11849],[107.36116,-7.11715],[107.36063,-7.11548],[107.36002,-7.11538],[107.35964,-7.11401],[107.35809,-7.11426],[107.35777,-7.11332],[107.35407,-7.11106],[107.34971,-7.10939],[107.34799,-7.10979],[107.34626,-7.10818],[107.34468,-7.10924],[107.34353,-7.1085],[107.34348,-7.10906],[107.34267,-7.10892],[107.34067,-7.11067],[107.33411,-7.1084],[107.32889,-7.10832],[107.32595,-7.10985],[107.3221,-7.10792],[107.32026,-7.10798],[107.31909,-7.10721],[107.3162,-7.10786],[107.31453,-7.10699],[107.31203,-7.10736],[107.31175,-7.10812],[107.31162,-7.10724],[107.31254,-7.10564],[107.31082,-7.10296],[107.31159,-7.10077],[107.31117,-7.09731],[107.30887,-7.09476],[107.3064,-7.09033],[107.30198,-7.08816],[107.29933,-7.08387],[107.2964,-7.08512],[107.2955,-7.08805],[107.29566,-7.09049],[107.29437,-7.0901],[107.29227,-7.0873],[107.28829,-7.08492],[107.28534,-7.08479],[107.28387,-7.08204],[107.2846,-7.08066],[107.28423,-7.07968],[107.28362,-7.07968],[107.28394,-7.07871],[107.28327,-7.07796],[107.2826,-7.07805],[107.28209,-7.07697],[107.28051,-7.07712],[107.27518,-7.07486],[107.27486,-7.07362],[107.27185,-7.07253],[107.27039,-7.07117],[107.2701,-7.06996],[107.26797,-7.06853],[107.26765,-7.06751],[107.26616,-7.06685],[107.2652,-7.06237],[107.26339,-7.06083],[107.26138,-7.06114],[107.2597,-7.06059],[107.26019,-7.05861],[107.258,-7.05872],[107.258,-7.05783],[107.25653,-7.05767],[107.25795,-7.05569],[107.25749,-7.05332],[107.25685,-7.05406],[107.25597,-7.05319],[107.25421,-7.05303],[107.25457,-7.05166],[107.25269,-7.04873],[107.2516,-7.04957],[107.25,-7.04908],[107.24903,-7.05047],[107.24635,-7.04991],[107.24551,-7.05044],[107.24551,-7.04915],[107.24449,-7.04938],[107.2423,-7.04868],[107.24241,-7.04792],[107.24111,-7.04767],[107.24025,-7.04672],[107.23951,-7.04714],[107.23785,-7.04671],[107.23711,-7.04798],[107.23538,-7.04878],[107.23409,-7.04867],[107.23426,-7.04992],[107.23301,-7.04935],[107.23233,-7.05019],[107.23112,-7.04978],[107.22978,-7.05117],[107.22936,-7.04946],[107.22858,-7.05052],[107.22679,-7.04947],[107.22448,-7.04914],[107.22444,-7.0501],[107.2228,-7.05033],[107.22403,-7.05224],[107.22263,-7.05214],[107.22236,-7.05285],[107.2231,-7.05336],[107.22299,-7.05432],[107.2244,-7.05703],[107.22365,-7.05848],[107.22234,-7.05821],[107.22233,-7.05762],[107.22153,-7.05789],[107.22172,-7.05709],[107.22004,-7.05716],[107.21862,-7.05846],[107.21728,-7.05826],[107.21683,-7.05653],[107.21518,-7.05656],[107.21463,-7.05557],[107.21311,-7.05621],[107.21223,-7.05466],[107.21011,-7.05628],[107.20932,-7.05404],[107.20851,-7.05472],[107.20805,-7.0563],[107.20597,-7.05571],[107.20461,-7.0571],[107.20376,-7.05679],[107.20366,-7.0546],[107.20296,-7.05417],[107.20226,-7.05653],[107.19976,-7.05608],[107.19824,-7.05894],[107.19553,-7.05765],[107.19511,-7.0579],[107.19546,-7.05887],[107.19405,-7.05847],[107.19262,-7.05908],[107.19115,-7.05878],[107.1918,-7.06093],[107.19074,-7.06118],[107.19038,-7.06185],[107.18965,-7.06171],[107.1895,-7.06016],[107.18757,-7.06019],[107.1861,-7.05805],[107.18491,-7.05938],[107.1842,-7.05842],[107.18275,-7.05869],[107.18198,-7.05822],[107.18424,-7.05529],[107.18429,-7.05266],[107.18487,-7.05194],[107.18706,-7.05138],[107.18594,-7.0511],[107.18578,-7.0496],[107.18846,-7.04629],[107.18671,-7.0459],[107.18648,-7.04536],[107.18927,-7.04389],[107.18805,-7.0423],[107.18927,-7.03661],[107.19108,-7.03185],[107.19127,-7.02846],[107.19396,-7.02707],[107.19312,-7.02406],[107.19339,-7.02252],[107.19563,-7.02111],[107.19534,-7.02031],[107.19438,-7.01995],[107.19435,-7.0185],[107.19307,-7.01847],[107.19142,-7.0165],[107.19106,-7.0133],[107.18891,-7.01299],[107.18806,-7.01156],[107.18803,-7.01008],[107.18944,-7.00855],[107.18723,-7.00656],[107.18597,-7.00279],[107.18649,-7.00034],[107.18586,-6.99747],[107.18456,-6.99622],[107.18529,-6.99466],[107.18961,-6.995],[107.18948,-6.99372],[107.19019,-6.99283],[107.18853,-6.98917],[107.18634,-6.98933],[107.18595,-6.98884],[107.18655,-6.98628],[107.18524,-6.98567],[107.1849,-6.9831],[107.18532,-6.98074],[107.1862,-6.97998],[107.18643,-6.97304],[107.18728,-6.97262],[107.18919,-6.9732],[107.19078,-6.97215],[107.19017,-6.96819],[107.19202,-6.96798],[107.19231,-6.96624],[107.1953,-6.9652],[107.19646,-6.96303],[107.20058,-6.96327],[107.2022,-6.96041],[107.20973,-6.95657],[107.21191,-6.95375],[107.21393,-6.95364],[107.21927,-6.94934],[107.2186,-6.94632],[107.21703,-6.9455],[107.21514,-6.94291],[107.21799,-6.94029],[107.22184,-6.93898],[107.2274,-6.94002],[107.23276,-6.93871],[107.2338,-6.93768],[107.23543,-6.9374],[107.24162,-6.93402],[107.24337,-6.93373],[107.24492,-6.93246],[107.24664,-6.93228],[107.2509,-6.92852],[107.25243,-6.92786],[107.25377,-6.928],[107.25522,-6.92711],[107.25969,-6.92804],[107.26453,-6.92812],[107.26608,-6.92646],[107.27169,-6.92613],[107.27432,-6.92435],[107.27839,-6.92547],[107.27934,-6.92375],[107.28307,-6.92338],[107.28439,-6.92162],[107.28614,-6.92076],[107.28752,-6.91925],[107.28766,-6.91814],[107.29175,-6.91587],[107.2923,-6.91333],[107.29391,-6.91203],[107.2935,-6.91007],[107.29587,-6.90995],[107.29919,-6.90878],[107.30154,-6.90962],[107.30364,-6.90809],[107.30663,-6.90767],[107.30831,-6.90511],[107.31183,-6.90378],[107.31506,-6.90008],[107.31519,-6.89919],[107.3141,-6.89722],[107.31448,-6.89656],[107.32324,-6.88788],[107.3277,-6.88704],[107.33099,-6.88858],[107.33397,-6.8865],[107.33898,-6.88665],[107.34096,-6.88576],[107.34131,-6.88498],[107.34158,-6.88097],[107.34303,-6.87884],[107.34175,-6.87725],[107.3413,-6.87492],[107.34336,-6.87356],[107.34404,-6.87119],[107.34694,-6.87059],[107.34738,-6.86766],[107.34937,-6.86582],[107.34681,-6.86085],[107.35017,-6.85598],[107.3495,-6.85352],[107.34796,-6.8523],[107.34287,-6.85342],[107.34255,-6.8525],[107.34403,-6.84961],[107.3429,-6.84895],[107.34141,-6.85009],[107.34074,-6.85473],[107.33774,-6.85762],[107.33647,-6.85693],[107.33595,-6.8544],[107.33496,-6.85325],[107.33241,-6.85377],[107.33129,-6.85591],[107.33028,-6.85633],[107.32942,-6.85583],[107.3289,-6.85425],[107.32913,-6.85191],[107.32781,-6.85176],[107.32596,-6.85296],[107.32432,-6.8518],[107.32377,-6.85046],[107.32404,-6.84944],[107.32477,-6.8489],[107.32678,-6.84882],[107.32748,-6.84706],[107.32529,-6.84427],[107.3247,-6.84151],[107.32287,-6.84022],[107.32284,-6.83174],[107.32342,-6.82964],[107.32285,-6.82538],[107.32171,-6.82404],[107.31579,-6.82296],[107.31622,-6.82242],[107.31614,-6.8193],[107.31832,-6.81744],[107.3194,-6.81554],[107.31965,-6.81232],[107.31858,-6.81029],[107.31486,-6.80726],[107.31426,-6.80512],[107.3152,-6.80476],[107.31398,-6.80278],[107.31331,-6.79921],[107.31247,-6.79854],[107.31058,-6.79918],[107.30886,-6.79714],[107.30431,-6.79545],[107.30146,-6.79313],[107.30013,-6.79055],[107.29584,-6.78708],[107.29412,-6.78836],[107.29162,-6.78783],[107.2907,-6.78469],[107.28954,-6.78373],[107.28973,-6.78279],[107.28915,-6.78189],[107.28997,-6.78158],[107.28983,-6.78111],[107.28664,-6.77715],[107.28624,-6.77328],[107.28261,-6.77155],[107.28371,-6.7707],[107.28327,-6.76931],[107.28487,-6.76344],[107.28635,-6.76148],[107.28676,-6.7575],[107.28955,-6.74772],[107.29069,-6.73449],[107.29266,-6.73054],[107.29479,-6.72849],[107.29836,-6.73016],[107.30003,-6.72929],[107.30223,-6.72934],[107.30274,-6.72862],[107.31584,-6.72727],[107.32249,-6.72555],[107.33131,-6.71334],[107.33777,-6.69648],[107.34007,-6.69499],[107.34405,-6.694],[107.34852,-6.69451],[107.35451,-6.6961],[107.36219,-6.70016],[107.3715,-6.70064],[107.37083,-6.69849],[107.371,-6.69699],[107.37292,-6.6947],[107.37285,-6.69354],[107.37155,-6.69088],[107.36924,-6.68998],[107.36825,-6.68883],[107.36801,-6.68792],[107.36851,-6.68727],[107.3695,-6.6886],[107.37132,-6.68877],[107.37426,-6.69112],[107.37733,-6.69012],[107.37906,-6.6909],[107.38013,-6.69034],[107.38676,-6.69381],[107.38966,-6.69419],[107.39271,-6.69552],[107.39584,-6.69565],[107.39661,-6.69509],[107.3979,-6.69557],[107.39977,-6.69484],[107.40043,-6.69328],[107.40281,-6.69191],[107.40368,-6.69223],[107.40398,-6.69157],[107.40572,-6.69122],[107.40699,-6.68922],[107.4091,-6.68848],[107.41114,-6.6889],[107.41204,-6.68992],[107.41283,-6.68942],[107.41671,-6.69067],[107.42251,-6.6957],[107.42383,-6.69861],[107.42514,-6.70002],[107.42741,-6.69974],[107.42855,-6.7006],[107.43005,-6.70023],[107.43067,-6.70111],[107.43222,-6.70099],[107.43285,-6.70192],[107.43407,-6.70148],[107.43549,-6.70214],[107.43562,-6.70052],[107.43638,-6.70077],[107.43802,-6.70013],[107.43967,-6.70278],[107.44023,-6.70126],[107.44182,-6.70125],[107.44144,-6.69952],[107.44323,-6.69971],[107.44367,-6.70067],[107.44436,-6.70011],[107.44531,-6.70081],[107.44627,-6.70021],[107.44787,-6.70149],[107.44905,-6.70142],[107.44929,-6.70029],[107.45064,-6.69991],[107.45133,-6.70049],[107.45222,-6.70032],[107.45374,-6.70108],[107.45362,-6.70174],[107.4543,-6.70212],[107.45402,-6.70306],[107.45638,-6.70533],[107.45816,-6.70573],[107.46014,-6.70738],[107.46003,-6.70832],[107.46181,-6.70999],[107.46186,-6.71066],[107.46415,-6.71083],[107.46448,-6.71256],[107.46558,-6.71333],[107.46664,-6.71634],[107.46979,-6.71698],[107.47043,-6.71904],[107.47122,-6.7198],[107.47476,-6.7194],[107.47515,-6.72226],[107.4764,-6.72449],[107.47743,-6.7248],[107.47744,-6.72597],[107.47933,-6.72634],[107.47894,-6.72755],[107.48116,-6.7289],[107.48372,-6.72931],[107.4847,-6.73033],[107.484,-6.73067],[107.48389,-6.73148],[107.48632,-6.73213],[107.48631,-6.73278],[107.48543,-6.73336],[107.48751,-6.73444],[107.48738,-6.73534],[107.48999,-6.73462],[107.49131,-6.73572],[107.49461,-6.73489],[107.49669,-6.7363],[107.50159,-6.73657],[107.50231,-6.73821],[107.50319,-6.73855],[107.50375,-6.74119],[107.50761,-6.7454],[107.50796,-6.74768],[107.50889,-6.74806],[107.50874,-6.74933],[107.51064,-6.75126],[107.51098,-6.75258],[107.51175,-6.75239],[107.51253,-6.75435],[107.51427,-6.75533],[107.51923,-6.756],[107.52352,-6.75639],[107.52696,-6.7559],[107.52868,-6.76021],[107.53184,-6.76313],[107.53421,-6.76394],[107.53559,-6.7633],[107.54029,-6.76393],[107.54408,-6.7666],[107.54579,-6.769],[107.54671,-6.76924],[107.54926,-6.77298],[107.55357,-6.77478],[107.55554,-6.77447],[107.55909,-6.77281],[107.56302,-6.77389],[107.56837,-6.77119],[107.57049,-6.77087],[107.5721,-6.77179],[107.57492,-6.77676],[107.57631,-6.77679],[107.57843,-6.77579],[107.57827,-6.77464],[107.57908,-6.77424],[107.579,-6.77374],[107.57671,-6.77152],[107.5768,-6.77106],[107.57761,-6.77138],[107.57784,-6.76965],[107.57625,-6.76845],[107.577,-6.76798],[107.57635,-6.76689],[107.57706,-6.76619],[107.57543,-6.7656],[107.57641,-6.76456],[107.57562,-6.76418],[107.57548,-6.76318],[107.57664,-6.76255],[107.57505,-6.76169],[107.5743,-6.7625],[107.57365,-6.76129],[107.57321,-6.76196],[107.57162,-6.76185],[107.57191,-6.7608],[107.5727,-6.76042],[107.57252,-6.75926],[107.57298,-6.75869],[107.57261,-6.75687],[107.57184,-6.7565],[107.57224,-6.75582],[107.57153,-6.7554],[107.57336,-6.75349],[107.57259,-6.75234],[107.57298,-6.75136],[107.57137,-6.75096],[107.57262,-6.75067],[107.57307,-6.74955],[107.57187,-6.74869],[107.57253,-6.74804],[107.5726,-6.74584],[107.56918,-6.74488],[107.56844,-6.74326],[107.57044,-6.73982],[107.57098,-6.7366],[107.57474,-6.73434],[107.57629,-6.73126],[107.57774,-6.72968],[107.58482,-6.72678],[107.59123,-6.72786],[107.59734,-6.73063],[107.59973,-6.73495],[107.5993,-6.73862],[107.60056,-6.74203],[107.60162,-6.74827],[107.5991,-6.75656],[107.60014,-6.75896],[107.60797,-6.75752],[107.61184,-6.7577],[107.61222,-6.75598],[107.61375,-6.75551],[107.61622,-6.75621],[107.61868,-6.75862],[107.61849,-6.76032],[107.61715,-6.76194],[107.61824,-6.76457],[107.61942,-6.76484],[107.62353,-6.76769],[107.62422,-6.76977],[107.62531,-6.77072],[107.6254,-6.77204],[107.62684,-6.77329],[107.62933,-6.77426],[107.63756,-6.77415],[107.64051,-6.77535],[107.64202,-6.77539],[107.64494,-6.77854],[107.64616,-6.77924],[107.64712,-6.77899],[107.64746,-6.77972],[107.65077,-6.78121],[107.65188,-6.78343],[107.65286,-6.78363],[107.65368,-6.78459],[107.6581,-6.78538],[107.6589,-6.78621],[107.65976,-6.78604],[107.66172,-6.78414],[107.67713,-6.78357],[107.67732,-6.7845],[107.67945,-6.78689],[107.68018,-6.79031],[107.6814,-6.79057],[107.68242,-6.79173],[107.68318,-6.79421],[107.6856,-6.79598],[107.69054,-6.79646],[107.69172,-6.79603],[107.69257,-6.79489],[107.69478,-6.79482],[107.69578,-6.79376],[107.69695,-6.79396],[107.70183,-6.79267],[107.70857,-6.79283],[107.712,-6.79759],[107.72211,-6.80025],[107.72444,-6.80168],[107.72641,-6.80441],[107.72655,-6.81067]],[[107.48103,-7.02888],[107.48104,-7.02875],[107.48097,-7.02902],[107.48103,-7.02888]],[[107.48109,-7.02845],[107.48105,-7.02865],[107.48105,-7.02866],[107.48109,-7.02845]]]}},{"type":"Feature","properties":{"t":"b"},"geometry":{"type":"LineString","coordinates":[[107.54729,-6.92671],[107.54954,-6.92716],[107.5502,-6.92621],[107.55268,-6.92701],[107.5549,-6.92885],[107.5557,-6.92922],[107.55595,-6.92862],[107.55789,-6.92981],[107.5584,-6.92835],[107.558,-6.92604],[107.55868,-6.92601],[107.55961,-6.9268],[107.55959,-6.92747],[107.56055,-6.9274],[107.55893,-6.93067],[107.56433,-6.93272],[107.56519,-6.9297],[107.56283,-6.92851],[107.5627,-6.92722],[107.56332,-6.92566],[107.56501,-6.92439],[107.56477,-6.92017],[107.56556,-6.91812],[107.56459,-6.91703],[107.56458,-6.91586],[107.56555,-6.9142],[107.56506,-6.91369],[107.56538,-6.91232],[107.56674,-6.91204],[107.56758,-6.91096],[107.56829,-6.91141],[107.56903,-6.91031],[107.55645,-6.88963],[107.55828,-6.88908],[107.55852,-6.8883],[107.56175,-6.888],[107.57611,-6.89072],[107.57354,-6.88686],[107.57232,-6.88631],[107.57143,-6.882],[107.57297,-6.87744],[107.57401,-6.87711],[107.57372,-6.87559],[107.57512,-6.87344],[107.57496,-6.8713],[107.57591,-6.87072],[107.57568,-6.86962],[107.57677,-6.86858],[107.57571,-6.86753],[107.57688,-6.86726],[107.57671,-6.86557],[107.57927,-6.86414],[107.582,-6.86103],[107.58405,-6.85967],[107.5866,-6.85957],[107.58916,-6.85723],[107.58965,-6.85543],[107.58881,-6.85485],[107.58875,-6.85367],[107.59039,-6.85305],[107.5896,-6.84961],[107.59212,-6.84793],[107.59314,-6.84617],[107.59322,-6.84484],[107.59464,-6.84317],[107.59406,-6.84208],[107.59669,-6.83878],[107.59753,-6.83861],[107.59752,-6.83706],[107.59857,-6.83608],[107.59822,-6.8382],[107.59687,-6.83902],[107.59646,-6.84],[107.59638,-6.84179],[107.59973,-6.8421],[107.6,-6.84261],[107.60381,-6.84197],[107.60276,-6.84554],[107.60321,-6.84589],[107.60324,-6.84811],[107.60251,-6.84874],[107.60235,-6.85153],[107.60282,-6.85201],[107.60189,-6.852],[107.60222,-6.85364],[107.6014,-6.8544],[107.60157,-6.85528],[107.60036,-6.85632],[107.60372,-6.85645],[107.60324,-6.85825],[107.60432,-6.85847],[107.60453,-6.85937],[107.60546,-6.85843],[107.60624,-6.85841],[107.60785,-6.85595],[107.60845,-6.85597],[107.61102,-6.85087],[107.61339,-6.84922],[107.61453,-6.84925],[107.61594,-6.84718],[107.61588,-6.84954],[107.61682,-6.84917],[107.62119,-6.85561],[107.62235,-6.85572],[107.622,-6.85788],[107.62243,-6.86251],[107.62291,-6.86299],[107.62386,-6.86187],[107.62623,-6.86369],[107.62375,-6.86649],[107.62448,-6.8672],[107.62537,-6.86649],[107.62653,-6.86694],[107.62668,-6.86813],[107.62726,-6.86827],[107.62731,-6.87121],[107.63003,-6.87136],[107.63064,-6.87235],[107.62965,-6.87495],[107.6302,-6.87677],[107.62948,-6.88053],[107.63061,-6.88258],[107.63292,-6.88314],[107.63392,-6.88464],[107.63324,-6.88542],[107.63246,-6.88941],[107.63357,-6.8897],[107.63393,-6.88816],[107.63541,-6.8884],[107.63623,-6.88631],[107.63745,-6.88654],[107.6397,-6.89071],[107.64212,-6.89261],[107.64187,-6.89333],[107.64232,-6.89382],[107.64406,-6.89304],[107.64587,-6.8885],[107.64669,-6.88851],[107.64652,-6.88945],[107.64711,-6.88982],[107.64567,-6.89115],[107.6467,-6.89174],[107.64805,-6.89143],[107.64914,-6.89206],[107.64927,-6.89332],[107.65437,-6.89478],[107.65561,-6.89411],[107.6565,-6.89428],[107.66356,-6.88361],[107.66521,-6.88447],[107.66567,-6.88531],[107.66446,-6.88967],[107.66533,-6.8901],[107.66913,-6.88461],[107.67019,-6.88399],[107.6707,-6.88439],[107.66808,-6.89102],[107.67061,-6.8912],[107.67298,-6.89218],[107.67477,-6.8919],[107.67808,-6.89254],[107.67852,-6.89134],[107.67956,-6.89078],[107.67968,-6.88968],[107.68077,-6.88942],[107.68136,-6.89042],[107.68339,-6.89143],[107.68271,-6.89253],[107.68415,-6.89289],[107.68386,-6.89353],[107.68457,-6.89438],[107.68461,-6.89559],[107.68884,-6.89698],[107.68873,-6.89801],[107.68953,-6.89827],[107.69045,-6.90004],[107.69235,-6.90141],[107.69381,-6.90148],[107.69488,-6.90268],[107.69283,-6.9054],[107.7,-6.90821],[107.70059,-6.90756],[107.70212,-6.90815],[107.7026,-6.90721],[107.70399,-6.90761],[107.70427,-6.90386],[107.70494,-6.9022],[107.70086,-6.90073],[107.70191,-6.89796],[107.7036,-6.89872],[107.70442,-6.89838],[107.70493,-6.89576],[107.70411,-6.89338],[107.70463,-6.89153],[107.7066,-6.89168],[107.70755,-6.89071],[107.70762,-6.88973],[107.71023,-6.89049],[107.71088,-6.88991],[107.71217,-6.8905],[107.71258,-6.8894],[107.71344,-6.88943],[107.71455,-6.89021],[107.71466,-6.89573],[107.71393,-6.90229],[107.71492,-6.90398],[107.71744,-6.89918],[107.71846,-6.89962],[107.7197,-6.8989],[107.72255,-6.89909],[107.7241,-6.89799],[107.72428,-6.89698],[107.72612,-6.89504],[107.72708,-6.89644],[107.72756,-6.89595],[107.72991,-6.89589],[107.73024,-6.89709],[107.73208,-6.89781],[107.73362,-6.89773],[107.73435,-6.89815],[107.73411,-6.89908],[107.73463,-6.8995],[107.73603,-6.89913],[107.7372,-6.89995],[107.73801,-6.89952],[107.73812,-6.90113],[107.73955,-6.9021],[107.73708,-6.90717],[107.73636,-6.90701],[107.73501,-6.90886],[107.73431,-6.90854],[107.7319,-6.9109],[107.73055,-6.91344],[107.72972,-6.91321],[107.72854,-6.91702],[107.72726,-6.91658],[107.7262,-6.91764],[107.72577,-6.91919],[107.7269,-6.91966],[107.726,-6.92416],[107.72489,-6.92599],[107.72441,-6.92902],[107.72276,-6.93323],[107.72137,-6.93472],[107.72091,-6.93738],[107.71779,-6.93915],[107.71642,-6.94139],[107.71709,-6.94204],[107.71589,-6.94577],[107.71435,-6.94605],[107.71305,-6.94758],[107.71336,-6.94932],[107.71256,-6.95391],[107.71363,-6.95614],[107.71488,-6.95581],[107.71561,-6.9562],[107.71584,-6.95862],[107.71648,-6.95922],[107.71585,-6.96044],[107.71598,-6.96169],[107.70441,-6.96764],[107.69668,-6.96963],[107.6918,-6.96967],[107.67095,-6.96755],[107.66579,-6.96759],[107.64943,-6.96467],[107.6424,-6.96582],[107.63872,-6.96585],[107.62655,-6.96421],[107.61679,-6.96092],[107.58885,-6.96273],[107.58342,-6.96203],[107.56556,-6.95279],[107.56101,-6.94923],[107.54671,-6.92952],[107.5459,-6.92808],[107.54729,-6.92671]]}},{"type":"Feature","properties":{"t":"b"},"geometry":{"type":"LineString","coordinates":[[107.52505,-6.92075],[107.52415,-6.91859],[107.52209,-6.91753],[107.519,-6.9189],[107.51882,-6.91672],[107.5205,-6.91594],[107.51876,-6.91549],[107.51834,-6.9147],[107.52095,-6.9106],[107.51983,-6.90922],[107.51805,-6.90837],[107.51588,-6.90482],[107.51287,-6.90497],[107.51421,-6.90327],[107.5123,-6.90271],[107.5109,-6.90118],[107.51021,-6.89832],[107.51087,-6.89561],[107.51328,-6.89132],[107.51452,-6.89053],[107.51451,-6.88956],[107.51246,-6.88887],[107.5127,-6.88799],[107.51535,-6.8833],[107.51624,-6.88325],[107.51678,-6.88158],[107.51973,-6.88065],[107.5201,-6.87773],[107.51933,-6.87527],[107.51875,-6.875],[107.52026,-6.87426],[107.52115,-6.87477],[107.52211,-6.87287],[107.52303,-6.8731],[107.52365,-6.87024],[107.52595,-6.86959],[107.52677,-6.86765],[107.52489,-6.86749],[107.52436,-6.86571],[107.5238,-6.86524],[107.52278,-6.86545],[107.52386,-6.86472],[107.52745,-6.86542],[107.5283,-6.86431],[107.52988,-6.86414],[107.53236,-6.86228],[107.53357,-6.86213],[107.53421,-6.85994],[107.53655,-6.85841],[107.53645,-6.85753],[107.53686,-6.85763],[107.53757,-6.85571],[107.53535,-6.85435],[107.53593,-6.85315],[107.53546,-6.85198],[107.53688,-6.84936],[107.53746,-6.84926],[107.53638,-6.84792],[107.53533,-6.84758],[107.53517,-6.84616],[107.53728,-6.84328],[107.53736,-6.84033],[107.53869,-6.83764],[107.53904,-6.83448],[107.53996,-6.83366],[107.5428,-6.83393],[107.54471,-6.83243],[107.54652,-6.83043],[107.54695,-6.82802],[107.55207,-6.82917],[107.54954,-6.83556],[107.54934,-6.83854],[107.55551,-6.84035],[107.55457,-6.84276],[107.55302,-6.84483],[107.55194,-6.84538],[107.5509,-6.84845],[107.55366,-6.84969],[107.55497,-6.85102],[107.55506,-6.85303],[107.55567,-6.85328],[107.5553,-6.854],[107.55603,-6.85479],[107.55843,-6.85619],[107.55933,-6.85448],[107.56137,-6.85528],[107.56267,-6.8549],[107.56256,-6.85577],[107.56354,-6.85608],[107.56329,-6.85946],[107.56229,-6.86036],[107.56181,-6.86191],[107.56358,-6.86299],[107.56247,-6.86472],[107.56413,-6.8661],[107.56495,-6.86495],[107.5655,-6.86531],[107.5648,-6.86647],[107.56518,-6.86651],[107.56329,-6.86805],[107.56163,-6.87146],[107.56255,-6.87314],[107.56481,-6.87499],[107.56446,-6.87616],[107.56555,-6.87589],[107.56891,-6.87724],[107.56873,-6.87795],[107.56931,-6.87799],[107.56883,-6.87874],[107.57017,-6.88043],[107.56971,-6.88163],[107.57054,-6.88277],[107.57149,-6.88215],[107.57232,-6.88631],[107.57354,-6.88686],[107.57611,-6.89072],[107.56175,-6.888],[107.55852,-6.8883],[107.55828,-6.88908],[107.55645,-6.88963],[107.56903,-6.91031],[107.56829,-6.91141],[107.56758,-6.91096],[107.56674,-6.91204],[107.56538,-6.91232],[107.56506,-6.91369],[107.56555,-6.9142],[107.56458,-6.91586],[107.56459,-6.91703],[107.56556,-6.91812],[107.56477,-6.92017],[107.56501,-6.92439],[107.56332,-6.92566],[107.5627,-6.92722],[107.56283,-6.92851],[107.56519,-6.9297],[107.56449,-6.93233],[107.56413,-6.93293],[107.55893,-6.93067],[107.56055,-6.9274],[107.55959,-6.92747],[107.55961,-6.9268],[107.55868,-6.92601],[107.558,-6.92604],[107.5584,-6.92835],[107.55789,-6.92981],[107.55595,-6.92862],[107.5557,-6.92922],[107.5549,-6.92885],[107.55268,-6.92701],[107.5502,-6.92621],[107.54954,-6.92716],[107.54668,-6.92634],[107.54525,-6.92649],[107.54377,-6.91902],[107.53698,-6.91739],[107.53597,-6.91771],[107.53639,-6.91894],[107.52974,-6.91724],[107.52844,-6.91884],[107.52663,-6.91941],[107.52668,-6.92055],[107.52505,-6.92075]]}},{"type":"Feature","properties":{"t":"l","n":"Kabupaten Bandung"},"geometry":{"type":"Point","coordinates":[107.63432,-7.06374]}},{"type":"Feature","properties":{"t":"l","n":"Kabupaten Bandung Barat"},"geometry":{"type":"Point","coordinates":[107.41118,-6.90453]}},{"type":"Feature","properties":{"t":"l","n":"Kota Bandung"},"geometry":{"type":"Point","coordinates":[107.62978,-6.903]}},{"type":"Feature","properties":{"t":"l","n":"Kota Cimahi"},"geometry":{"type":"Point","coordinates":[107.54436,-6.88055]}}]}