{"type":"FeatureCollection","_filter":"semua","features":[{"type":"Feature","properties":{"t":"b"},"geometry":{"type":"MultiLineString","coordinates":[[[112.82634,-7.34319],[112.81962,-7.34332],[112.81378,-7.34619],[112.81202,-7.34641],[112.79965,-7.34552],[112.79868,-7.34491],[112.79689,-7.3454],[112.79578,-7.34651],[112.79365,-7.34639],[112.78893,-7.34396],[112.78374,-7.34549],[112.77945,-7.34468],[112.77943,-7.34261],[112.77744,-7.34207],[112.77752,-7.34019],[112.77014,-7.33923],[112.76942,-7.33947],[112.76838,-7.34151],[112.76749,-7.34154],[112.76734,-7.33925],[112.76651,-7.33835],[112.76566,-7.33858],[112.75472,-7.33632],[112.75509,-7.33682],[112.75416,-7.3385],[112.75346,-7.34223],[112.74783,-7.34237],[112.74303,-7.34081],[112.74198,-7.3452],[112.73651,-7.34462],[112.73631,-7.34623],[112.73343,-7.34659],[112.73315,-7.34813],[112.72719,-7.34844],[112.7253,-7.34799],[112.72396,-7.34573],[112.71973,-7.3445],[112.71984,-7.34296],[112.71568,-7.34183],[112.7161,-7.33993],[112.70467,-7.33615],[112.69707,-7.34242],[112.69024,-7.34547],[112.68231,-7.34783],[112.67836,-7.35043],[112.6748,-7.35131],[112.6677,-7.35103],[112.66457,-7.35144],[112.66525,-7.3404],[112.66331,-7.33978],[112.66052,-7.33576],[112.65832,-7.33198],[112.65901,-7.3302],[112.65763,-7.33002],[112.65735,-7.33058],[112.65496,-7.3314],[112.654,-7.33359],[112.65344,-7.3377],[112.65229,-7.338],[112.65153,-7.33751],[112.64991,-7.32992],[112.65091,-7.32126],[112.65007,-7.32003],[112.64834,-7.31899],[112.64949,-7.31458],[112.64128,-7.31322],[112.64061,-7.31374],[112.63915,-7.31355],[112.63807,-7.31282],[112.63396,-7.31303],[112.62962,-7.31472],[112.62874,-7.30144],[112.62699,-7.29866],[112.62803,-7.29586],[112.62865,-7.28967],[112.6282,-7.28576],[112.62685,-7.28335],[112.62671,-7.28122],[112.62817,-7.27873],[112.6264,-7.27721],[112.62688,-7.27648],[112.63136,-7.27466],[112.63195,-7.27216],[112.63167,-7.26619],[112.6328,-7.26401],[112.63268,-7.26271],[112.63162,-7.26228],[112.6318,-7.26121],[112.63082,-7.26009],[112.6293,-7.25972],[112.62856,-7.26056],[112.62623,-7.26133],[112.62033,-7.25833],[112.6172,-7.25756],[112.6179,-7.25265],[112.61424,-7.2524],[112.61456,-7.24821],[112.60986,-7.24807],[112.60652,-7.24861],[112.60349,-7.24764],[112.60199,-7.24649],[112.60299,-7.2456],[112.60394,-7.2432],[112.60605,-7.2422],[112.60788,-7.23637],[112.60659,-7.23665],[112.60631,-7.23587],[112.60408,-7.236],[112.60461,-7.23277],[112.59782,-7.22849],[112.59877,-7.22718],[112.59762,-7.226],[112.59695,-7.22352],[112.59219,-7.22373],[112.59155,-7.22279],[112.59144,-7.22033],[112.59228,-7.21943],[112.59222,-7.21678],[112.59359,-7.21528],[112.59401,-7.21512],[112.59538,-7.21961],[112.59731,-7.22202],[112.5977,-7.21907],[112.60065,-7.21745],[112.60014,-7.21603],[112.59805,-7.21549],[112.5971,-7.21646],[112.59647,-7.21638],[112.59466,-7.21473],[112.59766,-7.21247],[112.59998,-7.21359],[112.60084,-7.21288],[112.60036,-7.20991],[112.5988,-7.20753],[112.59794,-7.20682],[112.59622,-7.20666],[112.59701,-7.20441],[112.60011,-7.20273],[112.60155,-7.20262],[112.60353,-7.20449],[112.60446,-7.20701],[112.60527,-7.20755],[112.60649,-7.20573],[112.60678,-7.20302],[112.60779,-7.20267],[112.60907,-7.20408],[112.60956,-7.20748],[112.61052,-7.20786],[112.61267,-7.20573],[112.61199,-7.20409],[112.60992,-7.20201],[112.61099,-7.20116],[112.61326,-7.20086],[112.61428,-7.20124],[112.61498,-7.20233],[112.61448,-7.20679],[112.61478,-7.20753],[112.61571,-7.20755],[112.61688,-7.2069],[112.61739,-7.20445],[112.61839,-7.20288],[112.62024,-7.20179],[112.62069,-7.2029],[112.61968,-7.20781],[112.61982,-7.2086],[112.62067,-7.20861],[112.62393,-7.20768],[112.62505,-7.20657],[112.6258,-7.20279],[112.62552,-7.20127],[112.62411,-7.20082],[112.62244,-7.20196],[112.62157,-7.20098],[112.62538,-7.19714],[112.6274,-7.19605],[112.63104,-7.19506],[112.63466,-7.19494],[112.63994,-7.19249],[112.64775,-7.19518],[112.66106,-7.19298],[112.66305,-7.19321],[112.66374,-7.19411],[112.66416,-7.19732],[112.66527,-7.19881],[112.66439,-7.20073],[112.66207,-7.20181],[112.66259,-7.20217],[112.66248,-7.20333],[112.66118,-7.2037],[112.66003,-7.20714],[112.66013,-7.20786],[112.66135,-7.20784],[112.66231,-7.20892],[112.66395,-7.20718],[112.66253,-7.20936],[112.66375,-7.20849],[112.66281,-7.20981],[112.66773,-7.20472],[112.66735,-7.20277],[112.67022,-7.20003],[112.67108,-7.20086],[112.67647,-7.19528],[112.67519,-7.19448],[112.67481,-7.19292],[112.6752,-7.19183],[112.67744,-7.19038],[112.68137,-7.19348],[112.68526,-7.19793],[112.68415,-7.1982],[112.68136,-7.20244],[112.68051,-7.20026],[112.67657,-7.19623],[112.67575,-7.19709],[112.6767,-7.1981],[112.67468,-7.19978],[112.67421,-7.19896],[112.67559,-7.19725],[112.67277,-7.20001],[112.66904,-7.20383],[112.67007,-7.20475],[112.66912,-7.20572],[112.66787,-7.2048],[112.66288,-7.20991],[112.66649,-7.2159],[112.66646,-7.217],[112.66788,-7.21823],[112.66829,-7.22004],[112.67667,-7.22385],[112.67724,-7.22369],[112.67756,-7.22247],[112.67864,-7.22242],[112.67885,-7.22115],[112.67995,-7.22114],[112.6804,-7.22341],[112.68604,-7.22551],[112.68667,-7.22415],[112.694,-7.22346],[112.69426,-7.22288],[112.69626,-7.2231],[112.69694,-7.22214],[112.69984,-7.2221],[112.70031,-7.22086],[112.7029,-7.22001],[112.70531,-7.22136],[112.70603,-7.22475],[112.70664,-7.22484],[112.70696,-7.22309],[112.70883,-7.22317],[112.70921,-7.22182],[112.71062,-7.22071],[112.70934,-7.21781],[112.71292,-7.21659],[112.71502,-7.21393],[112.71536,-7.21244],[112.71472,-7.20958],[112.71274,-7.20892],[112.71298,-7.20742],[112.7138,-7.20724],[112.71452,-7.20804],[112.71581,-7.20826],[112.71895,-7.20689],[112.72066,-7.21018],[112.72168,-7.21021],[112.7212,-7.20879],[112.72165,-7.20857],[112.72112,-7.20866],[112.72178,-7.2082],[112.72098,-7.20831],[112.72113,-7.20708],[112.7201,-7.20745],[112.71954,-7.20619],[112.71981,-7.20535],[112.71739,-7.20104],[112.71807,-7.20018],[112.71745,-7.19914],[112.71898,-7.19917],[112.72006,-7.1984],[112.72571,-7.20976],[112.72711,-7.20937],[112.72446,-7.20327],[112.72559,-7.20277],[112.72859,-7.20913],[112.73047,-7.20877],[112.72984,-7.20715],[112.73273,-7.20665],[112.73217,-7.20382],[112.73291,-7.20344],[112.73191,-7.20203],[112.73198,-7.20122],[112.73063,-7.20124],[112.73042,-7.20037],[112.73198,-7.20008],[112.73153,-7.19851],[112.72434,-7.19987],[112.72359,-7.198],[112.74332,-7.19434],[112.74351,-7.19482],[112.74796,-7.19441],[112.74865,-7.1952],[112.74678,-7.19563],[112.74612,-7.19674],[112.74855,-7.19748],[112.75204,-7.1999],[112.75408,-7.19967],[112.75997,-7.1959],[112.76304,-7.19581],[112.76582,-7.19682],[112.77187,-7.20122],[112.7728,-7.20284],[112.77476,-7.20305],[112.77445,-7.20569],[112.77639,-7.20855],[112.777,-7.20774],[112.78002,-7.20866],[112.78042,-7.20991],[112.78195,-7.21069],[112.78259,-7.21322],[112.78423,-7.21466],[112.78487,-7.21723],[112.78738,-7.21926],[112.78873,-7.22576],[112.79137,-7.22702],[112.79299,-7.23068],[112.79379,-7.23059],[112.79577,-7.23512],[112.79723,-7.236],[112.79751,-7.23701],[112.79692,-7.23847],[112.79761,-7.24036],[112.79868,-7.24005],[112.79982,-7.24249],[112.80139,-7.24232],[112.8024,-7.24429],[112.80183,-7.24457],[112.80219,-7.24596],[112.80159,-7.24612],[112.80172,-7.24671],[112.80272,-7.24673],[112.80292,-7.24736],[112.80245,-7.2475],[112.80395,-7.24972],[112.80409,-7.25196],[112.80644,-7.25168],[112.80715,-7.25276],[112.81285,-7.25486],[112.81492,-7.25232],[112.8161,-7.25168],[112.81749,-7.2519],[112.82045,-7.253],[112.82345,-7.25507],[112.82324,-7.25675],[112.82377,-7.25614],[112.82556,-7.25614],[112.82927,-7.25832],[112.83343,-7.25915],[112.83456,-7.26008],[112.8359,-7.26254],[112.8364,-7.26641],[112.83809,-7.26745],[112.84066,-7.27183],[112.84085,-7.27254],[112.83957,-7.27421],[112.84118,-7.2744],[112.84318,-7.27654],[112.84385,-7.27854],[112.84347,-7.27959],[112.84385,-7.28044],[112.84475,-7.28073],[112.8468,-7.28739],[112.84608,-7.29377],[112.8469,-7.29696],[112.84659,-7.29835],[112.8456,-7.29929],[112.84615,-7.30057],[112.84555,-7.30352],[112.84642,-7.30764],[112.84567,-7.30791],[112.84579,-7.30978],[112.84448,-7.31155],[112.84474,-7.31254],[112.84312,-7.31482],[112.84253,-7.31697],[112.84017,-7.31894],[112.83766,-7.32244],[112.83592,-7.3231],[112.83395,-7.32557],[112.83211,-7.33229],[112.82783,-7.338],[112.82699,-7.34259],[112.82634,-7.34319]],[[112.66404,-7.1927],[112.66585,-7.19174],[112.66606,-7.19615],[112.66687,-7.1968],[112.66608,-7.19817],[112.66529,-7.1979],[112.66446,-7.19651],[112.66432,-7.19397],[112.66358,-7.19314],[112.66404,-7.1927]]]}},{"type":"Feature","properties":{"t":"l","n":"Kota Surabaya"},"geometry":{"type":"Point","coordinates":[112.73555,-7.27019]}}]}